NORAD_CAT_ID,OBJECT_NAME,OBJECT_TYPE,EPOCH,MEAN_MOTION,ECCENTRICITY,INCLINATION,RA_OF_ASC_NODE,ARG_OF_PERICENTER,MEAN_ANOMALY,BSTAR,MEAN_MOTION_DOT,MEAN_MOTION_DDOT,TLE_LINE0,TLE_LINE1,TLE_LINE2,SEMIMAJOR_AXIS,PERIOD,APOGEE,PERIGEE,DECAYED
52491.0,STARLINK-3908,PAYLOAD,2023-09-08 06:03:04,15.0884278,0.0001408,53.2177,189.7013,89.6532,270.4622,9.2532e-05,1.185e-05,0.0,0 STARLINK-3908,1 52491U 22049AS  23251.25213370  .00001185  00000-0  92532-4 0  9994,2 52491  53.2177 189.7013 0001408  89.6532 270.4622 15.08842780 74493,6917.872,95.437,540.711,538.763,0.0
52491.0,STARLINK-3908,PAYLOAD,2023-09-09 02:43:05,15.08838849,0.0001285,53.2185,185.8347,93.0575,267.0564,2.591e-05,1.24e-06,0.0,0 STARLINK-3908,1 52491U 22049AS  23252.11325973  .00000124  00000-0  25910-4 0  9991,2 52491  53.2185 185.8347 0001285  93.0575 267.0564 15.08838849 74788,6917.884,95.438,540.638,538.86,0.0
52491.0,STARLINK-3908,PAYLOAD,2023-09-09 12:15:24,15.08837344,0.0001308,53.2189,184.0527,82.4359,277.6781,6.7242e-05,7.82e-06,0.0,0 STARLINK-3908,1 52491U 22049AS  23252.51070067  .00000782  00000-0  67242-4 0  9990,2 52491  53.2189 184.0527 0001308  82.4359 277.6781 15.08837344 74687,6917.889,95.438,540.658,538.849,0.0
52491.0,STARLINK-3908,PAYLOAD,2023-09-10 05:44:39,15.0884067,0.000133,53.2185,180.7829,91.1799,268.9345,1.7996e-05,-1e-08,0.0,0 STARLINK-3908,1 52491U 22049AS  23253.23934064 -.00000001  00000-0  17996-4 0  9992,2 52491  53.2185 180.7829 0001330  91.1799 268.9345 15.08840670 74956,6917.878,95.438,540.663,538.823,0.0
52491.0,STARLINK-3908,PAYLOAD,2023-09-11 11:56:59,15.08840301,0.0001269,53.2175,175.1321,93.6584,266.4553,1.8063e-05,0.0,0.0,0 STARLINK-3908,1 52491U 22049AS  23254.49790570  .00000000  00000-0  18063-4 0  9997,2 52491  53.2175 175.1321 0001269  93.6584 266.4553 15.08840301 74988,6917.879,95.438,540.622,538.867,0.0
52491.0,STARLINK-3908,PAYLOAD,2023-09-12 03:50:49,15.08846647,0.0001286,53.2173,172.1578,103.5498,256.5638,9.7391e-05,1.263e-05,0.0,0 STARLINK-3908,1 52491U 22049AS  23255.16029966  .00001263  00000-0  97391-4 0  9999,2 52491  53.2173 172.1578 0001286 103.5498 256.5638 15.08846647 75244,6917.86,95.437,540.615,538.835,0.0
52491.0,STARLINK-3908,PAYLOAD,2023-09-12 18:09:18,15.0883433,0.0001107,53.2155,169.4839,94.3584,265.7535,0.00010037,1.31e-05,0.0,0 STARLINK-3908,1 52491U 22049AS  23255.75646717  .00001310  00000-0  10037-3 0  9997,2 52491  53.2155 169.4839 0001107  94.3584 265.7535 15.08834330 75332,6917.898,95.438,540.529,538.997,0.0
52491.0,STARLINK-3908,PAYLOAD,2023-09-13 00:30:51,15.08844179,0.0001306,53.2166,168.2931,99.9991,260.1148,4.0336e-05,3.54e-06,0.0,0 STARLINK-3908,1 52491U 22049AS  23256.02142437  .00000354  00000-0  40336-4 0  9991,2 52491  53.2166 168.2931 0001306  99.9991 260.1148 15.08844179 75373,6917.868,95.437,540.636,538.829,0.0
52491.0,STARLINK-3908,PAYLOAD,2023-09-13 18:00:05,15.08849057,0.0001287,53.2169,165.0219,95.1666,264.9473,8.0681e-05,9.97e-06,0.0,0 STARLINK-3908,1 52491U 22049AS  23256.75005829  .00000997  00000-0  80681-4 0  9994,2 52491  53.2169 165.0219 0001287  95.1666 264.9473 15.08849057 75323,6917.853,95.437,540.608,538.827,0.0
52491.0,STARLINK-3908,PAYLOAD,2023-09-14 03:32:23,15.08849721,0.0001242,53.2171,163.2376,98.6776,261.4357,0.00015924,2.248e-05,0.0,0 STARLINK-3908,1 52491U 22049AS  23257.14749366  .00002248  00000-0  15924-3 0  9997,2 52491  53.2171 163.2376 0001242  98.6776 261.4357 15.08849721 75546,6917.851,95.437,540.575,538.856,0.0
52491.0,STARLINK-3908,PAYLOAD,2023-09-14 21:01:39,15.08834844,0.0001388,53.2176,159.9669,98.3413,261.7737,-4.247e-05,-9.64e-06,0.0,0 STARLINK-3908,1 52491U 22049AS  23257.87615054 -.00000964  00000-0 -42470-4 0  9995,2 52491  53.2176 159.9669 0001388  98.3413 261.7737 15.08834844 75493,6917.896,95.438,540.721,538.801,0.0
52491.0,STARLINK-3908,PAYLOAD,2023-09-15 00:12:25,15.08835343,0.0001488,53.218,159.3715,98.667,261.449,-1.7502e-05,-5.66e-06,0.0,0 STARLINK-3908,1 52491U 22049AS  23258.00863003 -.00000566  00000-0 -17502-4 0  9996,2 52491  53.2180 159.3715 0001488  98.6670 261.4490 15.08835343 75671,6917.895,95.438,540.789,538.73,0.0
52491.0,STARLINK-3908,PAYLOAD,2023-09-15 17:41:39,15.088432,0.0001275,53.2176,156.1009,94.5036,265.6102,1.7045e-05,-1.7e-07,0.0,0 STARLINK-3908,1 52491U 22049AS  23258.73726477 -.00000017  00000-0  17045-4 0  9991,2 52491  53.2176 156.1009 0001275  94.5036 265.6102 15.08843200 75781,6917.871,95.437,540.618,538.854,0.0
52491.0,STARLINK-3908,PAYLOAD,2023-09-16 00:03:11,15.08851346,0.0001242,53.2175,154.911,94.3232,265.7902,7.0502e-05,8.35e-06,0.0,0 STARLINK-3908,1 52491U 22049AS  23259.00221804  .00000835  00000-0  70502-4 0  9990,2 52491  53.2175 154.9110 0001242  94.3232 265.7902 15.08851346 75823,6917.846,95.437,540.57,538.852,0.0
52491.0,STARLINK-3908,PAYLOAD,2023-09-16 17:32:27,15.08831907,0.0001367,53.2175,151.643,93.8548,266.2601,6.9386e-05,8.16e-06,0.0,0 STARLINK-3908,1 52491U 22049AS  23259.73087278  .00000816  00000-0  69386-4 0  9992,2 52491  53.2175 151.6430 0001367  93.8548 266.2601 15.08831907 75939,6917.905,95.438,540.716,538.824,0.0
52491.0,STARLINK-3908,PAYLOAD,2023-09-17 03:04:45,15.08838675,0.0001308,53.2173,149.8562,88.628,271.4862,0.00013879,1.922e-05,0.0,0 STARLINK-3908,1 52491U 22049AS  23260.12830950  .00001922  00000-0  13879-3 0  9994,2 52491  53.2173 149.8562 0001308  88.6280 271.4862 15.08838675 75994,6917.884,95.438,540.654,538.845,0.0
52491.0,STARLINK-3908,PAYLOAD,2023-09-17 23:44:45,15.08852955,0.0001353,53.217,145.9916,103.9767,256.1376,0.00013825,1.914e-05,0.0,0 STARLINK-3908,1 52491U 22049AS  23260.98942118  .00001914  00000-0  13825-3 0  9990,2 52491  53.2170 145.9916 0001353 103.9767 256.1376 15.08852955 76125,6917.841,95.437,540.642,538.77,0.0
52491.0,STARLINK-3908,PAYLOAD,2023-09-18 20:24:47,15.08836685,0.0001317,53.2158,142.1256,94.3796,265.7347,3.7575e-05,3.1e-06,0.0,0 STARLINK-3908,1 52491U 22049AS  23261.85054960  .00000310  00000-0  37575-4 0  9994,2 52491  53.2158 142.1256 0001317  94.3796 265.7347 15.08836685 76094,6917.891,95.438,540.667,538.844,0.0
52491.0,STARLINK-3908,PAYLOAD,2023-09-18 23:35:33,15.08844186,0.0001341,53.216,141.5307,86.0116,274.1029,0.00014664,2.047e-05,0.0,0 STARLINK-3908,1 52491U 22049AS  23261.98302677  .00002047  00000-0  14664-3 0  9991,2 52491  53.2160 141.5307 0001341  86.0116 274.1029 15.08844186 76274,6917.868,95.437,540.66,538.805,0.0
52491.0,STARLINK-3908,PAYLOAD,2023-09-19 21:50:56,15.08857414,0.0001266,53.2155,137.3682,88.1646,271.9491,0.00031301,4.699e-05,0.0,0 STARLINK-3908,1 52491U 22049AS  23262.91037782  .00004699  00000-0  31301-3 0  9999,2 52491  53.2155 137.3682 0001266  88.1646 271.9491 15.08857414 76416,6917.827,95.436,540.568,538.816,0.0
52491.0,STARLINK-3908,PAYLOAD,2023-09-20 08:58:39,15.08844881,0.0001535,53.2163,135.2868,79.5611,280.5554,0.00012759,1.743e-05,0.0,0 STARLINK-3908,1 52491U 22049AS  23263.37406477  .00001743  00000-0  12759-3 0  9994,2 52491  53.2163 135.2868 0001535  79.5611 280.5554 15.08844881 76480,6917.865,95.437,540.792,538.669,0.0
52491.0,STARLINK-3908,PAYLOAD,2023-09-20 21:41:45,15.08819109,0.0001583,53.2153,132.9087,77.0428,283.074,-0.00032031,-5.379e-05,0.0,0 STARLINK-3908,1 52491U 22049AS  23263.90399700 -.00005379  00000-0 -32031-3 0  9999,2 52491  53.2153 132.9087 0001583  77.0428 283.0740 15.08819109 76400,6917.944,95.439,540.904,538.714,0.0
52491.0,STARLINK-3908,PAYLOAD,2023-09-21 00:52:31,15.08820873,0.0001625,53.2158,132.3123,85.9237,274.1941,-0.00024763,-4.225e-05,0.0,0 STARLINK-3908,1 52491U 22049AS  23264.03647613 -.00004225  00000-0 -24763-3 0  9995,2 52491  53.2158 132.3123 0001625  85.9237 274.1941 15.08820873 76586,6917.939,95.439,540.928,538.68,0.0
52491.0,STARLINK-3908,PAYLOAD,2023-09-21 15:11:00,15.0881659,0.0001646,53.216,129.6314,103.0339,257.0836,-8.1782e-05,-1.588e-05,0.0,0 STARLINK-3908,1 52491U 22049AS  23264.63264691 -.00001588  00000-0 -81782-4 0  9996,2 52491  53.2160 129.6314 0001646 103.0339 257.0836 15.08816590 76515,6917.952,95.439,540.956,538.678,0.0
52491.0,STARLINK-3908,PAYLOAD,2023-09-22 00:43:18,15.08846892,0.0001705,53.217,127.8495,91.7846,268.3341,0.00095062,0.00014876,0.0,0 STARLINK-3908,1 52491U 22049AS  23265.03008052  .00014876  00000-0  95062-3 0  9995,2 52491  53.2170 127.8495 0001705  91.7846 268.3341 15.08846892 76736,6917.859,95.437,540.904,538.545,0.0
52491.0,STARLINK-3908,PAYLOAD,2023-09-22 18:12:33,15.08856055,0.0001664,53.2169,124.5782,90.4839,269.6343,0.00057885,8.94e-05,0.0,0 STARLINK-3908,1 52491U 22049AS  23265.75871608  .00008940  00000-0  57885-3 0  9995,2 52491  53.2169 124.5782 0001664  90.4839 269.6343 15.08856055 76849,6917.831,95.437,540.847,538.545,0.0
52491.0,STARLINK-3908,PAYLOAD,2023-09-22 19:47:56,15.08858323,0.0001611,53.2165,124.2807,89.8985,270.2192,0.00065197,0.00010108,0.0,0 STARLINK-3908,1 52491U 22049AS  23265.82495529  .00010108  00000-0  65197-3 0  9991,2 52491  53.2165 124.2807 0001611  89.8985 270.2192 15.08858323 76699,6917.824,95.436,540.804,538.575,0.0
52491.0,STARLINK-3908,PAYLOAD,2023-09-23 00:34:05,15.08861503,0.0001572,53.2167,123.3887,88.273,271.8442,0.00068629,0.00010658,0.0,0 STARLINK-3908,1 52491U 22049AS  23266.02367297  .00010658  00000-0  68629-3 0  9997,2 52491  53.2167 123.3887 0001572  88.2730 271.8442 15.08861503 76729,6917.815,95.436,540.767,538.592,0.0
52491.0,STARLINK-3908,PAYLOAD,2023-09-23 18:03:19,15.08852434,0.000191,53.216,120.1141,123.7985,236.319,0.00014588,2.035e-05,0.0,0 STARLINK-3908,1 52491U 22049AS  23266.75231203  .00002035  00000-0  14588-3 0  9999,2 52491  53.2160 120.1141 0001910 123.7985 236.3190 15.08852434 76991,6917.842,95.437,541.029,538.386,0.0
52491.0,STARLINK-3908,PAYLOAD,2023-09-23 21:14:06,15.08848866,0.0001315,53.2169,119.524,83.4335,276.6807,0.00016728,2.376e-05,0.0,0 STARLINK-3908,1 52491U 22049AS  23266.88479276  .00002376  00000-0  16728-3 0  9993,2 52491  53.2169 119.5240 0001315  83.4335 276.6807 15.08848866 76853,6917.853,95.437,540.628,538.809,0.0
